STARLINK-35481          
1 66247U 25245P   25321.50003471 -.02046608  00000+0 -24194-1 0  9994
2 66247  53.1593  89.0888 0000896  76.6703 234.4739 15.64089159  4044
STARLINK-35416          
1 66248U 25245Q   25321.50003471 -.02047225  00000+0 -24202-1 0  9991
2 66248  53.1594  89.0858 0000863  75.5534 237.5069 15.64089816  3990
STARLINK-35304          
1 66249U 25245R   25321.50003471 -.02045797  00000+0 -24185-1 0  9994
2 66249  53.1595  89.0732 0000796  73.1127 245.6983 15.64088271  3832
STARLINK-35338          
1 66250U 25245S   25321.50003471 -.02048654  00000+0 -24220-1 0  9991
2 66250  53.1596  89.0810 0000892  75.2064 239.7702 15.64090970  3946
STARLINK-35485          
1 66251U 25245T   25321.50003471 -.02045432  00000+0 -24180-1 0  9998
2 66251  53.1594  89.0771 0000808  72.6188 244.2752 15.64088074  3832
STARLINK-35483          
1 66252U 25245U   25321.50003471 -.02046278  00000+0 -24191-1 0  9990
2 66252  53.1596  89.0686 0000819  72.1986 248.5288 15.64088728  3997
STARLINK-35486          
1 66253U 25245V   25321.50003471 -.02048422  00000+0 -24217-1 0  9993
2 66253  53.1596  89.0650 0000879  73.8562 248.7878 15.64090701  3837
STARLINK-35488          
1 66254U 25245W   25321.50003471 -.02049255  00000+0 -24228-1 0  9991
2 66254  53.1594  89.0602 0000885  73.4628 251.0973 15.64091515  4040
STARLINK-35616          
1 66255U 25245X   25321.50003471 -.02053562  00000+0 -24283-1 0  9999
2 66255  53.1598  89.0564 0000856  70.3531 256.1218 15.64095070  4058
STARLINK-35619          
1 66256U 25245Y   25321.50003471 -.02046215  00000+0 -24192-1 0  9996
2 66256  53.1596  89.0446 0000739  66.8478 265.3814 15.64087676  4053
STARLINK-35615          
1 66257U 25245Z   25321.50003471 -.02046729  00000+0 -24197-1 0  9992
2 66257  53.1595  89.0487 0000796  72.0236 258.2878 15.64088996  4059
STARLINK-34650          
1 66258U 25245AA  25321.50003471 -.02047524  00000+0 -24207-1 0  9999
2 66258  53.1596  89.0524 0000821  72.4426 255.9518 15.64089627  4054
